satname,norad_id,inclination_deg,eccentricity,mean_motion_rev_per_day,perigee_km,apogee_km,l1,l2
STARLINK-1255,45399,53.0413,0.0002898,15.4945383,416.35311774384263,420.2923458043797,1 45399U 20019AR  26056.50730854  .00089416  00000+0  15890-2 0  9995,2 45399  53.0413 161.2628 0002898 223.3019 136.7761 15.49453830328546
STARLINK-1260,45404,53.1596,0.0001293,15.30187138,474.3673299137372,476.13961669013224,1 45404U 20019AW  26056.35323200  .00001825  00000+0  73753-4 0  9990,2 45404  53.1596 186.5417 0001293  91.2833 268.8316 15.30187138328083
STARLINK-1263,45405,53.1595,0.0001375,15.30185587,474.31576255030086,476.20044620400404,1 45405U 20019AX  26056.66823932  .00005271  00000+0  19006-3 0  9991,2 45405  53.1595 185.1080 0001375  86.0177 274.0981 15.30185587328137
STARLINK-1265,45406,53.1616,0.0001272,15.30179332,474.4050268035471,476.1485352694435,1 45406U 20019AY  26056.35641727 -.00001964  00000+0 -54227-4 0  9990,2 45406  53.1616 186.6335 0001272  81.3695 278.7450 15.30179332328087
STARLINK-1278,45408,53.0456,0.0002389,15.53028174,406.26936597277745,409.5117299351896,1 45408U 20019BA  26055.79399823  .00093245  00000+0  14580-2 0  9993,2 45408  53.0456 192.6958 0002389 132.8167 227.3043 15.53028174327959
STARLINK-1296,45412,53.1611,0.0001162,15.30188621,474.4526818143295,476.045408731251,1 45412U 20019BE  26056.54601887 -.00000755  00000+0 -13392-4 0  9996,2 45412  53.1611 185.6540 0001162  85.1183 274.9950 15.30188621328116
STARLINK-1298,45413,53.038,0.0007443,15.89648994,298.29324522051957,308.23918204433267,1 45413U 20019BF  26056.91671296  .00202853  25987-4  68270-3 0  9990,2 45413  53.0380 114.0864 0007443 330.3507 246.4733 15.89648994  5985
STARLINK-1309,45414,53.0666,0.0002773,15.52298307,408.13515052325056,411.8998610121489,1 45414U 20019BG  26056.53332066  .00084718  00000+0  13621-2 0  9999,2 45414  53.0666 182.2242 0002773 354.3106   5.7871 15.52298307328146
STARLINK-1316,45415,53.162,0.0001147,15.30193708,474.4477746243447,476.01993789876997,1 45415U 20019BH  26056.52601252 -.00000259  00000+0  33950-5 0  9994,2 45415  53.1620 185.7968 0001147  86.4855 273.6276 15.30193708328138
STARLINK-1318,45416,53.0252,0.0008853,16.13929733,230.2293093399967,241.9404506006722,1 45416U 20019BJ  26056.88831451  .01430940  15362-2  11540-2 0  9992,2 45416  53.0252  98.6453 0008853  20.5340 339.6050 16.13929733329365
STARLINK-1286,45417,53.0481,0.0002055,15.49831213,415.8229519236129,418.6158434030531,1 45417U 20019BK  26056.35803016  .00034464  00000+0  61357-3 0  9993,2 45417  53.0481 189.9284 0002055  66.6733 293.4491 15.49831213328314
STARLINK-1308,45419,53.0444,0.0002639,15.49194366,417.28778640742985,420.8753583699372,1 45419U 20019BM  26056.81619799  .00027395  00000+0  50082-3 0  9997,2 45419  53.0444 209.0494 0002639  96.5596 263.5712 15.49194366327830
STARLINK-1329,45531,53.0508,0.0002374,15.53580434,404.67165319867036,407.89289547012504,1 45531U 20025A   26056.49308103  .00087715  00000+0  13458-2 0  9994,2 45531  53.0508 140.3031 0002374 238.6427 121.4350 15.53580434323553
STARLINK-1338,45532,53.0493,0.00046,15.52292335,406.9123569948315,413.1574751576218,1 45532U 20025B   26056.60726849  .00078870  00000+0  12695-2 0  9993,2 45532  53.0493 143.0074 0004600 296.8762  63.1776 15.52292335323526
STARLINK-1350,45535,53.0726,0.0001501,15.35724837,457.7421570250408,459.79459601907274,1 45535U 20025E   26056.36222168  .00011713  00000+0  34261-3 0  9991,2 45535  53.0726  91.0224 0001501  54.2551 305.8591 15.35724837324267
STARLINK-1362,45538,53.1582,0.0001232,15.30220245,474.31029663710433,475.9989476928058,1 45538U 20025H   26056.91671296 -.00020542  00000+0 -68290-3 0  9996,2 45538  53.1582 155.6817 0001232  82.3205  13.6442 15.30220245  5449
STARLINK-1368,45540,53.1601,0.0001271,15.30194844,474.3594013444572,476.1015273538951,1 45540U 20025K   26056.51696213  .00000009  00000+0  12436-4 0  9997,2 45540  53.1601 157.8700 0001271  83.2356 276.8789 15.30194844323309
STARLINK-1371,45542,53.051,0.0002163,15.44930121,430.11046296926634,433.0563480166811,1 45542U 20025M   26056.72334133  .00069225  00000+0  14444-2 0  9996,2 45542  53.0510 146.4906 0002163 245.4649 114.6131 15.44930121323489
STARLINK-1372,45543,53.1619,0.0001334,15.30254288,474.1387644855904,475.9671955722615,1 45543U 20025N   26056.68965618 -.00009950  00000+0 -32370-3 0  9990,2 45543  53.1619 156.7613 0001334  62.3478 297.7658 15.30254288322434
STARLINK-1373,45544,53.0511,0.0004441,15.48505161,418.07874235374857,424.11782313187996,1 45544U 20025P   26056.50683877  .00022009  00000+0  41398-3 0  9994,2 45544  53.0511 147.3884 0004441 307.8996  52.1609 15.48505161323455
STARLINK-1294,45551,53.0279,0.0004074,16.08403912,248.52459886405268,253.9262033484747,1 45551U 20025W   26056.23292715  .01057426  65607-3  12226-2 0  9996,2 45551  53.0279  38.6105 0004074  83.7730 276.3766 16.08403912324958
STARLINK-1327,45555,53.0483,0.0005207,15.51482261,408.8617471039415,415.93340981394977,1 45555U 20025AA  26056.91671296  .00054431  00000+0  90697-3 0  9993,2 45555  53.0483 123.3534 0005207   7.3539 234.7286 15.51482261  5801
STARLINK-1356,45564,53.051,0.0005069,15.43308438,432.89866660456755,439.8071964971732,1 45564U 20025AK  26056.49669818  .00030463  00000+0  67982-3 0  9993,2 45564  53.0510 131.8279 0005069 347.9574  12.1309 15.43308438323665
STARLINK-1357,45565,53.0544,0.000305,15.52788767,406.5180863012265,410.657988574063,1 45565U 20025AL  26056.49593231  .00088904  00000+0  14032-2 0  9999,2 45565  53.0544  96.8803 0003050  23.0125 337.1020 15.52788767324161
STARLINK-1361,45567,53.0517,0.0007418,15.45348122,425.3048369279186,435.40591621780095,1 45567U 20025AN  26056.79847041  .00069318  00000+0  14247-2 0  9991,2 45567  53.0517 130.6658 0007418 348.5921  11.4916 15.45348122323714
STARLINK-1363,45568,53.0438,0.0008331,15.73850578,342.30052095243263,353.5074504428021,1 45568U 20025AP  26056.38857224  .00088244  00000+0  60815-3 0  9993,2 45568  53.0438  99.0163 0008331  10.7998 349.3198 15.73850578324117
STARLINK-1366,45569,53.044,0.0008311,15.73149309,344.311026050691,355.4943736397736,1 45569U 20025AQ  26056.39808127  .00079640  00000+0  56661-3 0  9997,2 45569  53.0440  99.6795 0008311   9.5975 350.5200 15.73149309324107
STARLINK-1376,45570,53.1616,0.0001355,15.29362298,476.7884699462211,478.64640649897956,1 45570U 20025AR  26056.49870850  .00001133  00000+0  51581-4 0  9991,2 45570  53.1616 134.3578 0001355  91.3972 268.7184 15.29362298323631
STARLINK-1320,45572,53.0497,0.0008132,15.66688105,362.90187969162525,373.8744282020052,1 45572U 20025AT  26056.91671296 -.00031991  00000+0 -29404-3 0  9998,2 45572  53.0497  43.7343 0008132  15.3830 163.5510 15.66688105  5889
STARLINK-1321,45573,53.0503,0.0003778,15.4610642,425.5576075316312,430.7004221324387,1 45573U 20025AU  26056.54959646  .00080481  00000+0  16092-2 0  9990,2 45573  53.0503 116.4949 0003778 351.6466   8.4477 15.46106420323582
STARLINK-1331,45578,53.0539,0.0003124,15.46109078,425.99493908291424,430.2474892151149,1 45578U 20025AZ  26056.68594505  .00068551  00000+0  13740-2 0  9990,2 45578  53.0539 122.5095 0003124  42.1440 317.9806 15.46109078323828
STARLINK-1333,45580,53.1604,0.0001084,15.30196714,474.48197641269326,475.9677852684599,1 45580U 20025BB  26056.47949166 -.00008682  00000+0 -28137-3 0  9995,2 45580  53.1604 134.5234 0001084  90.4334 269.6791 15.30196714323635
STARLINK-1335,45581,53.0915,0.0001338,15.16196279,516.4265314209279,518.2717635139888,1 45581U 20025BC  26056.91671296  .00056793  00000+0  28986-2 0  9996,2 45581  53.0915 129.3213 0001338  52.2631  12.4567 15.16196279  5785
STARLINK-1337,45582,53.0537,0.0003424,15.55928446,397.13444604145116,401.7757411071316,1 45582U 20025BD  26056.68211058  .00085023  00000+0  11976-2 0  9996,2 45582  53.0537 119.9853 0003424  42.4179 317.7095 15.55928446323846
STARLINK-1347,45586,53.0472,0.0006001,15.51469325,408.36030183162165,416.51034673522645,1 45586U 20025BH  26056.32372832  .00091842  00000+0  15183-2 0  9999,2 45586  53.0472  89.0776 0006001   1.5194 358.5832 15.51469325324245
STARLINK-1364,45589,53.0518,0.0006459,15.4722356,420.45835611836446,429.24645783429696,1 45589U 20025BL  26056.55272633  .00067951  00000+0  13101-2 0  9997,2 45589  53.0518 121.2927 0006459   9.1845 350.9279 15.47223560323817
STARLINK-1365,45590,53.0524,0.0001953,15.43818501,433.52131023597485,436.1824636952224,1 45590U 20025BM  26056.63213737  .00029316  00000+0  64373-3 0  9999,2 45590  53.0524 150.9101 0001953 351.0252   9.0718 15.43818501323422
STARLINK-1443,45660,53.1096,7.44e-05,15.20037608,505.21490719743815,506.23922617055996,1 45660U 20035D   26056.91671296  .00062827  00000+0  28676-2 0  9996,2 45660  53.1096 119.1311 0000744  62.4883 322.2242 15.20037608  5486
STARLINK-1446,45663,53.0248,8.49e-05,15.42278042,438.8089597655335,439.9665754710759,1 45663U 20035G   26056.24201170  .00017456  00000+0  40802-3 0  9999,2 45663  53.0248  58.4771 0000849 207.2803 152.8157 15.42278042317750
STARLINK-1448,45665,53.0521,0.000677,15.4969917,413.0046760550258,422.2061112560359,1 45665U 20035J   26056.66489141  .00077793  00000+0  13728-2 0  9999,2 45665  53.0521 110.5129 0006770  29.5202 330.6187 15.49699170317058
STARLINK-1451,45668,53.0524,0.0001017,15.0938166,537.3848660722506,538.7916262873241,1 45668U 20035M   26056.56582832  .00021724  00000+0  13585-2 0  9996,2 45668  53.0524 120.7690 0001017 326.2038  33.8887 15.09381660316914
STARLINK-1452,45669,53.0337,0.0008021,15.42842486,432.25788360878687,443.19188924699483,1 45669U 20035N   26056.44555621  .00073559  00000+0  16439-2 0  9994,2 45669  53.0337  79.9693 0008021   5.0181 355.0903 15.42842486317473
STARLINK-1453,45670,53.0492,0.000845,15.49559981,412.2695924205718,423.75508480282497,1 45670U 20035P   26056.46287372  .00033343  00000+0  59896-3 0  9995,2 45670  53.0492  72.0819 0008450 354.6487   5.4429 15.49559981317470
